     2              NAVIGATION DATA                         RINEX VERSION / TYPE
CCRINEXN V1.6.0 UX  CDDIS               27-SEP-16 15:33     PGM / RUN BY / DATE 
IGS BROADCAST EPHEMERIS FILE                                COMMENT             
    0.8382D-08  0.1490D-07 -0.5960D-07 -0.5960D-07          ION ALPHA           
    0.8397D+05  0.1638D+05 -0.1311D+06 -0.6554D+05          ION BETA            
   -0.279396772385D-08-0.444089209850D-14   233472     1916 DELTA-UTC: A0,A1,T,W
    17                                                      LEAP SECONDS        
                                                            END OF HEADER       
10 16  9 26 22  0  0.0-0.102055259049D-03-0.409272615798D-11 0.000000000000D+00
    0.780000000000D+02 0.113750000000D+02 0.450411618595D-08-0.311881050453D+01
    0.694766640663D-06 0.174187391531D-02 0.115409493446D-04 0.515368255806D+04
    0.165600000000D+06-0.558793544769D-08 0.290729639876D+01 0.409781932831D-07
    0.960107263270D+00 0.158375000000D+03-0.286839500785D+01-0.787568519676D-08
    0.403945397376D-09 0.100000000000D+01 0.191600000000D+04 0.000000000000D+00
    0.200000000000D+01 0.000000000000D+00 0.232830643654D-08 0.780000000000D+02
    0.161640000000D+06 0.400000000000D+01 0.000000000000D+00 0.000000000000D+00
11 16  9 26 22  0  0.0-0.665289815515D-03-0.102318153950D-11 0.000000000000D+00
    0.720000000000D+02-0.764687500000D+02 0.619275786207D-08-0.156016903302D+01
   -0.349245965481D-05 0.168292635353D-01 0.351853668690D-05 0.515367825508D+04
    0.165600000000D+06 0.106170773506D-06 0.148375571469D+01 0.441446900368D-06
    0.897675562122D+00 0.276062500000D+03 0.157759922941D+01-0.908073527484D-08
   -0.138934364013D-09 0.100000000000D+01 0.191600000000D+04 0.000000000000D+00
    0.400000000000D+01 0.000000000000D+00-0.121071934700D-07 0.720000000000D+02
    0.158400000000D+06 0.000000000000D+00 0.000000000000D+00 0.000000000000D+00
12 16  9 26 22  0  0.0 0.388925429434D-03 0.227373675443D-12 0.000000000000D+00
    0.101000000000D+03 0.731562500000D+02 0.356371987181D-08-0.225868562691D+01
    0.390410423279D-05 0.602910504676D-02 0.956654548645D-05 0.515365702629D+04
    0.165600000000D+06-0.428408384323D-07-0.176481043304D+00-0.465661287308D-07
    0.990425229586D+00 0.211812500000D+03 0.786693027299D+00-0.750674125733D-08
    0.180007498035D-09 0.000000000000D+00 0.191600000000D+04 0.000000000000D+00
    0.280000000000D+01 0.000000000000D+00-0.125728547573D-07 0.101000000000D+03
    0.158610000000D+06 0.400000000000D+01 0.000000000000D+00 0.000000000000D+00
14 16  9 26 22  0  0.0-0.370894558728D-04-0.193267624127D-11 0.000000000000D+00
    0.760000000000D+02 0.199062500000D+02 0.502770935995D-08 0.676862294694D+00
    0.109709799290D-05 0.876973650884D-02 0.531040132046D-05 0.515358008575D+04
    0.165600000000D+06-0.819563865662D-07-0.224920106233D+01 0.614672899246D-07
    0.963188724654D+00 0.280843750000D+03-0.194396716375D+01-0.848856807068D-08
   -0.610739722684D-10 0.100000000000D+01 0.191600000000D+04 0.000000000000D+00
    0.200000000000D+01 0.000000000000D+00-0.931322574616D-08 0.760000000000D+02
    0.158400000000D+06 0.000000000000D+00 0.000000000000D+00 0.000000000000D+00
15 16  9 26 22  0  0.0-0.328752677888D-03-0.136424205266D-11 0.000000000000D+00
    0.210000000000D+02 0.326562500000D+02 0.577881213929D-08 0.392325272482D+00
    0.185519456863D-05 0.850287417415D-02 0.452622771263D-05 0.515366737366D+04
    0.165600000000D+06 0.260770320892D-07-0.238956981485D+01 0.558793544769D-07
    0.930211133770D+00 0.271687500000D+03 0.504418723887D+00-0.885608317713D-08
    0.128576784311D-10 0.100000000000D+01 0.191600000000D+04 0.000000000000D+00
    0.200000000000D+01 0.000000000000D+00-0.107102096081D-07 0.210000000000D+02
    0.158400000000D+06 0.400000000000D+01 0.000000000000D+00 0.000000000000D+00
16 16  9 26 22  0  0.0 0.832416117191D-05 0.181898940355D-11 0.000000000000D+00
    0.770000000000D+02 0.823125000000D+02 0.362050795155D-08 0.206132563684D+01
    0.420957803726D-05 0.867493904661D-02 0.102017074823D-04 0.515357520294D+04
    0.165600000000D+06-0.100582838059D-06-0.157685887290D+00 0.279396772385D-07
    0.990924214851D+00 0.200750000000D+03 0.385058263497D+00-0.767924844295D-08
    0.144291724615D-09 0.100000000000D+01 0.191600000000D+04 0.000000000000D+00
    0.200000000000D+01 0.000000000000D+00-0.107102096081D-07 0.770000000000D+02
    0.158400000000D+06 0.400000000000D+01 0.000000000000D+00 0.000000000000D+00
17 16  9 26 22  0  0.0-0.201904680580D-03 0.568434188608D-12 0.000000000000D+00
    0.740000000000D+02 0.203437500000D+02 0.441339812146D-08 0.112322160360D+01
    0.962987542152D-06 0.112091394840D-01 0.327266752720D-05 0.515374784851D+04
    0.165600000000D+06-0.180676579475D-06 0.861972219849D+00 0.372529029846D-08
    0.977480992487D+00 0.323781250000D+03-0.192176998296D+01-0.841106464032D-08
    0.156435087578D-09 0.100000000000D+01 0.191600000000D+04 0.000000000000D+00
    0.290000000000D+01 0.000000000000D+00-0.107102096081D-07 0.740000000000D+02
    0.159060000000D+06 0.400000000000D+01 0.000000000000D+00 0.000000000000D+00
18 16  9 26 22  0  0.0 0.561524182558D-03 0.363797880709D-11 0.000000000000D+00
    0.990000000000D+02 0.953125000000D+01 0.512485632798D-08 0.269347027385D+01
    0.413507223129D-06 0.172451810213D-01 0.111162662506D-04 0.515372342682D+04
    0.165600000000D+06 0.126659870148D-06 0.287392391362D+01-0.156462192535D-06
    0.925599985263D+00 0.142375000000D+03-0.185815545111D+01-0.796283168390D-08
    0.303226916332D-09 0.100000000000D+01 0.191600000000D+04 0.000000000000D+00
    0.200000000000D+01 0.000000000000D+00-0.111758708954D-07 0.990000000000D+02
    0.158400000000D+06 0.400000000000D+01 0.000000000000D+00 0.000000000000D+00
19 16  9 26 22  0  0.0-0.522541813552D-03 0.454747350886D-12 0.000000000000D+00
    0.460000000000D+02 0.718750000000D+01 0.439339728835D-08-0.203253887177D+01
    0.242143869400D-06 0.104899391299D-01 0.259652733803D-05 0.515363138580D+04
    0.165600000000D+06 0.130385160446D-06 0.910430320609D+00-0.577419996262D-07
    0.974601688827D+00 0.330906250000D+03 0.868788674936D+00-0.815355391396D-08
    0.303584074067D-09 0.100000000000D+01 0.191600000000D+04 0.000000000000D+00
    0.200000000000D+01 0.000000000000D+00-0.149011611938D-07 0.460000000000D+02
    0.162630000000D+06 0.400000000000D+01 0.000000000000D+00 0.000000000000D+00
20 16  9 26 22  0  0.0 0.437735579908D-03 0.204636307899D-11 0.000000000000D+00
    0.106000000000D+03 0.712500000000D+01 0.528057710009D-08 0.258702491654D+00
    0.456348061562D-06 0.467383791693D-02 0.111497938633D-04 0.515359070015D+04
    0.165600000000D+06-0.894069671631D-07 0.282231258364D+01 0.558793544769D-08
    0.926882570894D+00 0.148125000000D+03 0.144435379806D+01-0.839142096494D-08
    0.265011038773D-09 0.100000000000D+01 0.191600000000D+04 0.000000000000D+00
    0.200000000000D+01 0.000000000000D+00-0.838190317154D-08 0.106000000000D+03
    0.158400000000D+06 0.400000000000D+01 0.000000000000D+00 0.000000000000D+00
22 16  9 26 22  0  0.0 0.234604813158D-03-0.102318153950D-10 0.000000000000D+00
    0.690000000000D+02-0.237500000000D+01 0.542736892884D-08 0.624408623800D+00
   -0.298023223877D-07 0.741813762579D-02 0.113546848297D-04 0.515372228622D+04
    0.165600000000D+06-0.353902578354D-07 0.287431515789D+01 0.428408384323D-07
    0.923544554641D+00 0.143843750000D+03-0.186210287661D+01-0.852285501112D-08
    0.328942273195D-09 0.100000000000D+01 0.191600000000D+04 0.000000000000D+00
    0.200000000000D+01 0.000000000000D+00-0.176951289177D-07 0.690000000000D+02
    0.158400000000D+06 0.400000000000D+01 0.000000000000D+00 0.000000000000D+00
23 16  9 26 22  0  0.0-0.191314611584D-03-0.136424205266D-11 0.000000000000D+00
    0.130000000000D+02 0.313750000000D+02 0.541843998549D-08-0.140798328176D+00
    0.162422657013D-05 0.111480688211D-01 0.505894422531D-05 0.515360348701D+04
    0.165600000000D+06 0.931322574616D-08-0.232987282108D+01 0.119209289551D-06
    0.945384525940D+00 0.271343750000D+03-0.252822865752D+01-0.871357724118D-08
    0.532165023952D-10 0.100000000000D+01 0.191600000000D+04 0.000000000000D+00
    0.200000000000D+01 0.000000000000D+00-0.200234353542D-07 0.130000000000D+02
    0.158400000000D+06 0.400000000000D+01 0.000000000000D+00 0.000000000000D+00
24 16  9 26 22  0  0.0-0.237561762333D-04-0.568434188608D-12 0.000000000000D+00
    0.103000000000D+03-0.323125000000D+02 0.486770275936D-08-0.684555381496D+00
   -0.183843076229D-05 0.469391094521D-02 0.813417136669D-05 0.515372610855D+04
    0.165600000000D+06 0.132247805595D-06-0.130434275388D+01 0.819563865662D-07
    0.947792475932D+00 0.217625000000D+03 0.395963061131D+00-0.825927260328D-08
   -0.600739308918D-09 0.100000000000D+01 0.191600000000D+04 0.000000000000D+00
    0.280000000000D+01 0.000000000000D+00 0.232830643654D-08 0.103000000000D+03
    0.158418000000D+06 0.400000000000D+01 0.000000000000D+00 0.000000000000D+00
25 16  9 26 22  0  0.0-0.252931844443D-03-0.693489710102D-11 0.000000000000D+00
    0.550000000000D+02 0.711562500000D+02 0.376979988444D-08-0.279517777931D+01
    0.375881791115D-05 0.558665336575D-02 0.980868935585D-05 0.515369789505D+04
    0.165600000000D+06 0.558793544769D-08-0.228811232209D+00 0.428408384323D-07
    0.978535861752D+00 0.198812500000D+03 0.782474464562D+00-0.763103214883D-08
    0.172150027882D-09 0.100000000000D+01 0.191600000000D+04 0.000000000000D+00
    0.200000000000D+01 0.000000000000D+00 0.558793544769D-08 0.550000000000D+02
    0.158400000000D+06 0.400000000000D+01 0.000000000000D+00 0.000000000000D+00
